ONEWEB-0240             
1 48785U 21045U   23316.43180183  .00000257  00000+0  64930-3 0  9995
2 48785  87.8978  87.8558 0001068 107.6449 252.4798 13.15550679119794
ONEWEB-0246             
1 48786U 21045V   23316.42705872  .00000177  00000+0  43691-3 0  9995
2 48786  87.8977  87.8583 0001151  88.3731 271.7531 13.15551469119667
ONEWEB-0210             
1 48787U 21045W   23316.40168411 -.00000508  00000+0 -13824-2 0  9990
2 48787  87.8976  87.8713 0001526  67.7693 292.3599 13.15552973119705
ONEWEB-0214             
1 48788U 21045X   23316.41121063 -.00000001  00000+0 -37874-4 0  9995
2 48788  87.8975  87.8579 0001618  69.8172 290.3132 13.15551380119670
ONEWEB-0221             
1 48789U 21045Y   23316.41752908  .00000065  00000+0  13887-3 0  9999
2 48789  87.8977  87.8686 0001248  97.1388 262.9884 13.15546282119768
ONEWEB-0213             
1 48790U 21045Z   23316.40643614 -.00000408  00000+0 -11188-2 0  9997
2 48790  87.8978  87.8884 0001118  89.9266 270.1992 13.15548593119826
ONEWEB-0212             
1 48791U 21045AA  23316.38900925 -.00000411  00000+0 -11261-2 0  9992
2 48791  87.8980  87.8733 0001638 100.4652 259.6663 13.15548646119813
ONEWEB-0227             
1 48792U 21045AB  23316.61084310  .00000135  00000+0  32449-3 0  9993
2 48792  87.8981  87.8437 0001409 101.9855 258.1433 13.15553339119794
